[{"OBJECT_NAME":"SHIJIAN-16 (SJ-16)","OBJECT_ID":"2013-057A","EPOCH":"2026-03-09T23:08:29.723424","MEAN_MOTION":14.92346393,"ECCENTRICITY":0.00154796,"INCLINATION":74.9735,"RA_OF_ASC_NODE":184.568,"ARG_OF_PERICENTER":111.8205,"MEAN_ANOMALY":248.4632,"EPHEMERIS_TYPE":0,"CLASSIFICATION_TYPE":"U","NORAD_CAT_ID":39358,"ELEMENT_SET_NO":999,"REV_AT_EPOCH":67154,"BSTAR":5.6936716e-5,"MEAN_MOTION_DOT":5.54e-6,"MEAN_MOTION_DDOT":0},{"OBJECT_NAME":"ONEWEB-0050","OBJECT_ID":"2020-020AF","EPOCH":"2026-03-09T21:25:12.459648","MEAN_MOTION":14.90004194,"ECCENTRICITY":0.00029804,"INCLINATION":88.9205,"RA_OF_ASC_NODE":246.7269,"ARG_OF_PERICENTER":19.3816,"MEAN_ANOMALY":340.7526,"EPHEMERIS_TYPE":0,"CLASSIFICATION_TYPE":"U","NORAD_CAT_ID":45453,"ELEMENT_SET_NO":999,"REV_AT_EPOCH":32559,"BSTAR":0.00024442233,"MEAN_MOTION_DOT":2.377e-5,"MEAN_MOTION_DDOT":0}]
